{
  "type": "FeatureCollection",
  "features": [
    {
      "type": "Feature",
      "properties": {
        "norad_id": 31544,
        "name": "FENGYUN 1C DEB",
        "group": "fengyun-1c-debris",
        "lat": -38.45941755693594,
        "lon": 41.381748170468384,
        "alt_km": 833.7794847073874,
        "timestamp": "2025-12-08T23:34:04.252527+00:00",
        "meta_object_name": "FENGYUN 1C DEB",
        "meta_object_id": "1999-025BYK",
        "meta_epoch": "2025-12-07T01:54:30.978144",
        "meta_mean_motion": 14.14312139,
        "meta_eccentricity": 0.00315576,
        "meta_inclination": 98.8298,
        "meta_ra_of_asc_node": 32.4097,
        "meta_arg_of_pericenter": 285.4522,
        "meta_mean_anomaly": 74.3167,
        "meta_ephemeris_type": 0,
        "meta_classification_type": "U",
        "meta_norad_cat_id": 31544,
        "meta_element_set_no": 999,
        "meta_rev_at_epoch": 95677,
        "meta_bstar": 0.0011847546,
        "meta_mean_motion_dot": 2.231e-05,
        "meta_mean_motion_ddot": 0,
        "tle_line1": "1 31544U 99025BYK 25341.07952521  .00002231  00000+0  11848-2 0  9999",
        "tle_line2": "2 31544  98.8298  32.4097 0031557 285.4522  74.3167 14.14312139956778"
      },
      "geometry": {
        "type": "Point",
        "coordinates": [
          41.381748170468384,
          -38.45941755693594
        ]
      }
    },
    {
      "type": "Feature",
      "properties": {
        "norad_id": 31546,
        "name": "FENGYUN 1C DEB",
        "group": "fengyun-1c-debris",
        "lat": 37.27356478553236,
        "lon": -120.87717850209366,
        "alt_km": 740.489935419163,
        "timestamp": "2025-12-08T23:34:04.252537+00:00",
        "meta_object_name": "FENGYUN 1C DEB",
        "meta_object_id": "1999-025BYM",
        "meta_epoch": "2025-12-07T11:12:47.947104",
        "meta_mean_motion": 14.13072271,
        "meta_eccentricity": 0.01467291,
        "meta_inclination": 98.2446,
        "meta_ra_of_asc_node": 51.3914,
        "meta_arg_of_pericenter": 151.9137,
        "meta_mean_anomaly": 209.0053,
        "meta_ephemeris_type": 0,
        "meta_classification_type": "U",
        "meta_norad_cat_id": 31546,
        "meta_element_set_no": 999,
        "meta_rev_at_epoch": 94714,
        "meta_bstar": 0.0031675997,
        "meta_mean_motion_dot": 6.519e-05,
        "meta_mean_motion_ddot": 0,
        "tle_line1": "1 31546U 99025BYM 25341.46722161  .00006519  00000+0  31676-2 0  9993",
        "tle_line2": "2 31546  98.2446  51.3914 0146729 151.9137 209.0053 14.13072271947145"
      },
      "geometry": {
        "type": "Point",
        "coordinates": [
          -120.87717850209366,
          37.27356478553236
        ]
      }
    },
    {
      "type": "Feature",
      "properties": {
        "norad_id": 31547,
        "name": "FENGYUN 1C DEB",
        "group": "fengyun-1c-debris",
        "lat": 42.50890600826201,
        "lon": -144.9354700773252,
        "alt_km": 834.3253828815805,
        "timestamp": "2025-12-08T23:34:04.252548+00:00",
        "meta_object_name": "FENGYUN 1C DEB",
        "meta_object_id": "1999-025BYN",
        "meta_epoch": "2025-12-06T01:44:17.670336",
        "meta_mean_motion": 14.2307234,
        "meta_eccentricity": 0.00534444,
        "meta_inclination": 99.0859,
        "meta_ra_of_asc_node": 23.6288,
        "meta_arg_of_pericenter": 272.0478,
        "meta_mean_anomaly": 87.458,
        "meta_ephemeris_type": 0,
        "meta_classification_type": "U",
        "meta_norad_cat_id": 31547,
        "meta_element_set_no": 999,
        "meta_rev_at_epoch": 63922,
        "meta_bstar": 0.0023723325,
        "meta_mean_motion_dot": 5.385e-05,
        "meta_mean_motion_ddot": 0,
        "tle_line1": "1 31547U 99025BYN 25340.07242674  .00005385  00000+0  23723-2 0  9990",
        "tle_line2": "2 31547  99.0859  23.6288 0053444 272.0478  87.4580 14.23072340639221"
      },
      "geometry": {
        "type": "Point",
        "coordinates": [
          -144.9354700773252,
          42.50890600826201
        ]
      }
    },
    {
      "type": "Feature",
      "properties": {
        "norad_id": 31550,
        "name": "FENGYUN 1C DEB",
        "group": "fengyun-1c-debris",
        "lat": 79.87635739122217,
        "lon": -72.40663489955537,
        "alt_km": 877.7904908361315,
        "timestamp": "2025-12-08T23:34:04.252584+00:00",
        "meta_object_name": "FENGYUN 1C DEB",
        "meta_object_id": "1999-025BYR",
        "meta_epoch": "2025-12-08T06:29:52.049184",
        "meta_mean_motion": 14.40167406,
        "meta_eccentricity": 0.01902472,
        "meta_inclination": 98.3113,
        "meta_ra_of_asc_node": 341.8569,
        "meta_arg_of_pericenter": 286.3821,
        "meta_mean_anomaly": 71.6528,
        "meta_ephemeris_type": 0,
        "meta_classification_type": "U",
        "meta_norad_cat_id": 31550,
        "meta_element_set_no": 999,
        "meta_rev_at_epoch": 65390,
        "meta_bstar": 0.0012075302,
        "meta_mean_motion_dot": 4.676e-05,
        "meta_mean_motion_ddot": 0,
        "tle_line1": "1 31550U 99025BYR 25342.27074131  .00004676  00000+0  12075-2 0  9999",
        "tle_line2": "2 31550  98.3113 341.8569 0190247 286.3821  71.6528 14.40167406653905"
      },
      "geometry": {
        "type": "Point",
        "coordinates": [
          -72.40663489955537,
          79.87635739122217
        ]
      }
    },
    {
      "type": "Feature",
      "properties": {
        "norad_id": 31552,
        "name": "FENGYUN 1C DEB",
        "group": "fengyun-1c-debris",
        "lat": -18.924285271556187,
        "lon": 107.76042705148134,
        "alt_km": 706.9266061376275,
        "timestamp": "2025-12-08T23:34:04.252597+00:00",
        "meta_object_name": "FENGYUN 1C DEB",
        "meta_object_id": "1999-025BYT",
        "meta_epoch": "2025-12-08T07:02:34.816992",
        "meta_mean_motion": 14.4554573,
        "meta_eccentricity": 0.00857548,
        "meta_inclination": 98.6225,
        "meta_ra_of_asc_node": 104.079,
        "meta_arg_of_pericenter": 34.5602,
        "meta_mean_anomaly": 326.1122,
        "meta_ephemeris_type": 0,
        "meta_classification_type": "U",
        "meta_norad_cat_id": 31552,
        "meta_element_set_no": 999,
        "meta_rev_at_epoch": 95812,
        "meta_bstar": 0.0034430126,
        "meta_mean_motion_dot": 0.00012687,
        "meta_mean_motion_ddot": 0,
        "tle_line1": "1 31552U 99025BYT 25342.29345853  .00012687  00000+0  34430-2 0  9995",
        "tle_line2": "2 31552  98.6225 104.0790 0085754  34.5602 326.1122 14.45545730958120"
      },
      "geometry": {
        "type": "Point",
        "coordinates": [
          107.76042705148134,
          -18.924285271556187
        ]
      }
    },
    {
      "type": "Feature",
      "properties": {
        "norad_id": 31553,
        "name": "FENGYUN 1C DEB",
        "group": "fengyun-1c-debris",
        "lat": 76.84847127200014,
        "lon": -99.67154765040834,
        "alt_km": 762.6529142929085,
        "timestamp": "2025-12-08T23:34:04.252608+00:00",
        "meta_object_name": "FENGYUN 1C DEB",
        "meta_object_id": "1999-025BYU",
        "meta_epoch": "2025-12-07T15:54:21.502368",
        "meta_mean_motion": 14.30093382,
        "meta_eccentricity": 0.00306983,
        "meta_inclination": 99.0022,
        "meta_ra_of_asc_node": 36.2413,
        "meta_arg_of_pericenter": 116.6954,
        "meta_mean_anomaly": 34.8579,
        "meta_ephemeris_type": 0,
        "meta_classification_type": "U",
        "meta_norad_cat_id": 31553,
        "meta_element_set_no": 999,
        "meta_rev_at_epoch": 95837,
        "meta_bstar": 0.0027976581,
        "meta_mean_motion_dot": 7.228e-05,
        "meta_mean_motion_ddot": 0,
        "tle_line1": "1 31553U 99025BYU 25341.66274887  .00007228  00000+0  27977-2 0  9997",
        "tle_line2": "2 31553  99.0022  36.2413 0030698 116.6954  34.8579 14.30093382958379"
      },
      "geometry": {
        "type": "Point",
        "coordinates": [
          -99.67154765040834,
          76.84847127200014
        ]
      }
    },
    {
      "type": "Feature",
      "properties": {
        "norad_id": 31555,
        "name": "FENGYUN 1C DEB",
        "group": "fengyun-1c-debris",
        "lat": 29.869291613189738,
        "lon": -68.42232151728619,
        "alt_km": 853.0471500128679,
        "timestamp": "2025-12-08T23:34:04.252618+00:00",
        "meta_object_name": "FENGYUN 1C DEB",
        "meta_object_id": "1999-025BYW",
        "meta_epoch": "2025-12-07T02:31:39.558144",
        "meta_mean_motion": 14.44158663,
        "meta_eccentricity": 0.01545207,
        "meta_inclination": 99.1039,
        "meta_ra_of_asc_node": 294.8535,
        "meta_arg_of_pericenter": 213.2009,
        "meta_mean_anomaly": 145.9411,
        "meta_ephemeris_type": 0,
        "meta_classification_type": "U",
        "meta_norad_cat_id": 31555,
        "meta_element_set_no": 999,
        "meta_rev_at_epoch": 96482,
        "meta_bstar": 0.0022170192,
        "meta_mean_motion_dot": 8.749e-05,
        "meta_mean_motion_ddot": 0,
        "tle_line1": "1 31555U 99025BYW 25341.10531896  .00008749  00000+0  22170-2 0  9993",
        "tle_line2": "2 31555  99.1039 294.8535 0154520 213.2009 145.9411 14.44158663964828"
      },
      "geometry": {
        "type": "Point",
        "coordinates": [
          -68.42232151728619,
          29.869291613189738
        ]
      }
    }
  ]
}